[{"OBJECT_NAME":"PROBA-1","OBJECT_ID":"2001-049B","EPOCH":"2026-03-09T22:57:25.772256","MEAN_MOTION":15.07031721,"ECCENTRICITY":0.00568356,"INCLINATION":97.9638,"RA_OF_ASC_NODE":74.0417,"ARG_OF_PERICENTER":98.1776,"MEAN_ANOMALY":262.5903,"EPHEMERIS_TYPE":0,"CLASSIFICATION_TYPE":"U","NORAD_CAT_ID":26958,"ELEMENT_SET_NO":999,"REV_AT_EPOCH":32867,"BSTAR":0.00028513173,"MEAN_MOTION_DOT":4.362e-5,"MEAN_MOTION_DDOT":0},{"OBJECT_NAME":"STARLINK-3988","OBJECT_ID":"2022-052AD","EPOCH":"2026-03-09T22:12:32.080320","MEAN_MOTION":15.0883623,"ECCENTRICITY":0.00013961,"INCLINATION":53.2177,"RA_OF_ASC_NODE":268.0666,"ARG_OF_PERICENTER":96.7561,"MEAN_ANOMALY":263.359,"EPHEMERIS_TYPE":0,"CLASSIFICATION_TYPE":"U","NORAD_CAT_ID":52625,"ELEMENT_SET_NO":999,"REV_AT_EPOCH":21102,"BSTAR":-5.548616e-6,"MEAN_MOTION_DOT":-3.76e-6,"MEAN_MOTION_DDOT":0}]
